{
  "type": "FeatureCollection",
  "features": [
    {
      "type": "Feature",
      "properties": {
        "norad_id": 34635,
        "name": "COSMOS 2251 DEB",
        "group": "cosmos-2251-debris",
        "lat": -7.123321808565898,
        "lon": -105.40350390481522,
        "alt_km": 656.0277287587523,
        "timestamp": "2025-12-11T18:59:46.470253+00:00",
        "meta_object_name": "COSMOS 2251 DEB",
        "meta_object_id": "1993-036XG",
        "meta_epoch": "2025-12-11T07:02:00.335616",
        "meta_mean_motion": 14.68239511,
        "meta_eccentricity": 0.0028691,
        "meta_inclination": 74.0452,
        "meta_ra_of_asc_node": 73.5104,
        "meta_arg_of_pericenter": 142.6911,
        "meta_mean_anomaly": 290.804,
        "meta_ephemeris_type": 0,
        "meta_classification_type": "U",
        "meta_norad_cat_id": 34635,
        "meta_element_set_no": 999,
        "meta_rev_at_epoch": 73198,
        "meta_bstar": 0.0026080187,
        "meta_mean_motion_dot": 0.00015126,
        "meta_mean_motion_ddot": 0,
        "tle_line1": "1 34635U 93036XG  25345.29305944  .00015126  00000+0  26080-2 0  9999",
        "tle_line2": "2 34635  74.0452  73.5104 0028691 142.6911 290.8040 14.68239511731986"
      },
      "geometry": {
        "type": "Point",
        "coordinates": [
          -105.40350390481522,
          -7.123321808565898
        ]
      }
    },
    {
      "type": "Feature",
      "properties": {
        "norad_id": 34637,
        "name": "COSMOS 2251 DEB",
        "group": "cosmos-2251-debris",
        "lat": 42.31593524835641,
        "lon": 118.05853341504705,
        "alt_km": 711.2698657961964,
        "timestamp": "2025-12-11T18:59:46.470265+00:00",
        "meta_object_name": "COSMOS 2251 DEB",
        "meta_object_id": "1993-036XJ",
        "meta_epoch": "2025-12-11T07:22:53.534784",
        "meta_mean_motion": 14.60077201,
        "meta_eccentricity": 0.00499363,
        "meta_inclination": 74.049,
        "meta_ra_of_asc_node": 103.8876,
        "meta_arg_of_pericenter": 174.6978,
        "meta_mean_anomaly": 207.5524,
        "meta_ephemeris_type": 0,
        "meta_classification_type": "U",
        "meta_norad_cat_id": 34637,
        "meta_element_set_no": 999,
        "meta_rev_at_epoch": 88506,
        "meta_bstar": 0.0019971145,
        "meta_mean_motion_dot": 9.753e-05,
        "meta_mean_motion_ddot": 0,
        "tle_line1": "1 34637U 93036XJ  25345.30756406  .00009753  00000+0  19971-2 0  9996",
        "tle_line2": "2 34637  74.0490 103.8876 0049936 174.6978 207.5524 14.60077201885065"
      },
      "geometry": {
        "type": "Point",
        "coordinates": [
          118.05853341504705,
          42.31593524835641
        ]
      }
    },
    {
      "type": "Feature",
      "properties": {
        "norad_id": 34641,
        "name": "COSMOS 2251 DEB",
        "group": "cosmos-2251-debris",
        "lat": 59.254851696890015,
        "lon": 112.63317908221107,
        "alt_km": 707.5977382504789,
        "timestamp": "2025-12-11T18:59:46.470275+00:00",
        "meta_object_name": "COSMOS 2251 DEB",
        "meta_object_id": "1993-036XN",
        "meta_epoch": "2025-12-10T13:00:39.657024",
        "meta_mean_motion": 14.51975276,
        "meta_eccentricity": 0.0018107,
        "meta_inclination": 73.8386,
        "meta_ra_of_asc_node": 85.8366,
        "meta_arg_of_pericenter": 1.1742,
        "meta_mean_anomaly": 14.0914,
        "meta_ephemeris_type": 0,
        "meta_classification_type": "U",
        "meta_norad_cat_id": 34641,
        "meta_element_set_no": 999,
        "meta_rev_at_epoch": 88224,
        "meta_bstar": 0.0017121,
        "meta_mean_motion_dot": 6.906e-05,
        "meta_mean_motion_ddot": 0,
        "tle_line1": "1 34641U 93036XN  25344.54212566  .00006906  00000+0  17121-2 0  9992",
        "tle_line2": "2 34641  73.8386  85.8366 0018107   1.1742  14.0914 14.51975276882243"
      },
      "geometry": {
        "type": "Point",
        "coordinates": [
          112.63317908221107,
          59.254851696890015
        ]
      }
    },
    {
      "type": "Feature",
      "properties": {
        "norad_id": 34642,
        "name": "COSMOS 2251 DEB",
        "group": "cosmos-2251-debris",
        "lat": -29.80800818693372,
        "lon": -28.012799323734384,
        "alt_km": 1050.0266824287482,
        "timestamp": "2025-12-11T18:59:46.470286+00:00",
        "meta_object_name": "COSMOS 2251 DEB",
        "meta_object_id": "1993-036XP",
        "meta_epoch": "2025-12-10T11:16:39.296928",
        "meta_mean_motion": 13.98964055,
        "meta_eccentricity": 0.02073989,
        "meta_inclination": 74.0053,
        "meta_ra_of_asc_node": 343.733,
        "meta_arg_of_pericenter": 164.1427,
        "meta_mean_anomaly": 350.8698,
        "meta_ephemeris_type": 0,
        "meta_classification_type": "U",
        "meta_norad_cat_id": 34642,
        "meta_element_set_no": 999,
        "meta_rev_at_epoch": 85261,
        "meta_bstar": 0.0012238481,
        "meta_mean_motion_dot": 2.102e-05,
        "meta_mean_motion_ddot": 0,
        "tle_line1": "1 34642U 93036XP  25344.46989927  .00002102  00000+0  12238-2 0  9994",
        "tle_line2": "2 34642  74.0053 343.7330 0207398 164.1427 350.8698 13.98964055852618"
      },
      "geometry": {
        "type": "Point",
        "coordinates": [
          -28.012799323734384,
          -29.80800818693372
        ]
      }
    },
    {
      "type": "Feature",
      "properties": {
        "norad_id": 34671,
        "name": "COSMOS 2251 DEB",
        "group": "cosmos-2251-debris",
        "lat": 59.41395425225491,
        "lon": -72.8588761750698,
        "alt_km": 666.1867884471712,
        "timestamp": "2025-12-11T18:59:46.470296+00:00",
        "meta_object_name": "COSMOS 2251 DEB",
        "meta_object_id": "1993-036XR",
        "meta_epoch": "2025-12-11T04:31:17.025600",
        "meta_mean_motion": 14.66888464,
        "meta_eccentricity": 0.00115373,
        "meta_inclination": 74.0269,
        "meta_ra_of_asc_node": 137.2906,
        "meta_arg_of_pericenter": 217.1966,
        "meta_mean_anomaly": 315.6642,
        "meta_ephemeris_type": 0,
        "meta_classification_type": "U",
        "meta_norad_cat_id": 34671,
        "meta_element_set_no": 999,
        "meta_rev_at_epoch": 88274,
        "meta_bstar": 0.0028591802,
        "meta_mean_motion_dot": 0.00016007,
        "meta_mean_motion_ddot": 0,
        "tle_line1": "1 34671U 93036XR  25345.18839150  .00016007  00000+0  28592-2 0  9997",
        "tle_line2": "2 34671  74.0269 137.2906 0011537 217.1966 315.6642 14.66888464882749"
      },
      "geometry": {
        "type": "Point",
        "coordinates": [
          -72.8588761750698,
          59.41395425225491
        ]
      }
    },
    {
      "type": "Feature",
      "properties": {
        "norad_id": 34672,
        "name": "COSMOS 2251 DEB",
        "group": "cosmos-2251-debris",
        "lat": 38.17622261977829,
        "lon": -39.65660964052292,
        "alt_km": 751.4279609225077,
        "timestamp": "2025-12-11T18:59:46.470307+00:00",
        "meta_object_name": "COSMOS 2251 DEB",
        "meta_object_id": "1993-036XS",
        "meta_epoch": "2025-12-08T07:33:35.281152",
        "meta_mean_motion": 14.36398163,
        "meta_eccentricity": 0.00235672,
        "meta_inclination": 74.0335,
        "meta_ra_of_asc_node": 313.7193,
        "meta_arg_of_pericenter": 26.7043,
        "meta_mean_anomaly": 43.2667,
        "meta_ephemeris_type": 0,
        "meta_classification_type": "U",
        "meta_norad_cat_id": 34672,
        "meta_element_set_no": 999,
        "meta_rev_at_epoch": 65114,
        "meta_bstar": 0.00050497184,
        "meta_mean_motion_dot": 1.458e-05,
        "meta_mean_motion_ddot": 0,
        "tle_line1": "1 34672U 93036XS  25342.31499168  .00001458  00000+0  50497-3 0  9995",
        "tle_line2": "2 34672  74.0335 313.7193 0023567  26.7043  43.2667 14.36398163651147"
      },
      "geometry": {
        "type": "Point",
        "coordinates": [
          -39.65660964052292,
          38.17622261977829
        ]
      }
    },
    {
      "type": "Feature",
      "properties": {
        "norad_id": 34678,
        "name": "COSMOS 2251 DEB",
        "group": "cosmos-2251-debris",
        "lat": -60.26102660793554,
        "lon": -142.5166950653288,
        "alt_km": 815.6321742089121,
        "timestamp": "2025-12-11T18:59:46.470317+00:00",
        "meta_object_name": "COSMOS 2251 DEB",
        "meta_object_id": "1993-036XY",
        "meta_epoch": "2025-12-11T04:58:43.941792",
        "meta_mean_motion": 14.30064692,
        "meta_eccentricity": 0.00243807,
        "meta_inclination": 74.0379,
        "meta_ra_of_asc_node": 8.4789,
        "meta_arg_of_pericenter": 58.1102,
        "meta_mean_anomaly": 60.7905,
        "meta_ephemeris_type": 0,
        "meta_classification_type": "U",
        "meta_norad_cat_id": 34678,
        "meta_element_set_no": 999,
        "meta_rev_at_epoch": 87357,
        "meta_bstar": 4.357675e-05,
        "meta_mean_motion_dot": 8.7e-07,
        "meta_mean_motion_ddot": 0,
        "tle_line1": "1 34678U 93036XY  25345.20745303  .00000087  00000+0  43577-4 0  9996",
        "tle_line2": "2 34678  74.0379   8.4789 0024380  58.1102  60.7905 14.30064692873572"
      },
      "geometry": {
        "type": "Point",
        "coordinates": [
          -142.5166950653288,
          -60.26102660793554
        ]
      }
    }
  ]
}